{
  "type": "FeatureCollection",
  "features": [
    {
      "type": "Feature",
      "properties": {
        "norad_id": 32113,
        "name": "FENGYUN 1C DEB",
        "group": "fengyun-1c-debris",
        "lat": 63.85223196447283,
        "lon": -139.91362464147085,
        "alt_km": 970.5814298929517,
        "timestamp": "2025-12-12T09:49:09.017170+00:00",
        "meta_object_name": "FENGYUN 1C DEB",
        "meta_object_id": "1999-025CRF",
        "meta_epoch": "2025-12-11T21:11:46.039200",
        "meta_mean_motion": 13.94553118,
        "meta_eccentricity": 0.0237966,
        "meta_inclination": 99.0275,
        "meta_ra_of_asc_node": 20.6772,
        "meta_arg_of_pericenter": 228.9944,
        "meta_mean_anomaly": 129.0423,
        "meta_ephemeris_type": 0,
        "meta_classification_type": "U",
        "meta_norad_cat_id": 32113,
        "meta_element_set_no": 999,
        "meta_rev_at_epoch": 62874,
        "meta_bstar": 0.0014793,
        "meta_mean_motion_dot": 2.456e-05,
        "meta_mean_motion_ddot": 0,
        "tle_line1": "1 32113U 99025CRF 25345.88317175  .00002456  00000+0  14793-2 0  9996",
        "tle_line2": "2 32113  99.0275  20.6772 0237966 228.9944 129.0423 13.94553118628747"
      },
      "geometry": {
        "type": "Point",
        "coordinates": [
          -139.91362464147085,
          63.85223196447283
        ]
      }
    },
    {
      "type": "Feature",
      "properties": {
        "norad_id": 32114,
        "name": "FENGYUN 1C DEB",
        "group": "fengyun-1c-debris",
        "lat": 36.87066957162099,
        "lon": -69.07291168986967,
        "alt_km": 665.422197216234,
        "timestamp": "2025-12-12T09:49:09.017180+00:00",
        "meta_object_name": "FENGYUN 1C DEB",
        "meta_object_id": "1999-025CRG",
        "meta_epoch": "2025-12-06T13:19:21.641376",
        "meta_mean_motion": 14.76489439,
        "meta_eccentricity": 0.00447682,
        "meta_inclination": 99.9287,
        "meta_ra_of_asc_node": 96.1919,
        "meta_arg_of_pericenter": 3.5911,
        "meta_mean_anomaly": 356.5605,
        "meta_ephemeris_type": 0,
        "meta_classification_type": "U",
        "meta_norad_cat_id": 32114,
        "meta_element_set_no": 999,
        "meta_rev_at_epoch": 65638,
        "meta_bstar": 0.0040574802,
        "meta_mean_motion_dot": 0.0002877,
        "meta_mean_motion_ddot": 0,
        "tle_line1": "1 32114U 99025CRG 25340.55511159  .00028770  00000+0  40575-2 0  9998",
        "tle_line2": "2 32114  99.9287  96.1919 0044768   3.5911 356.5605 14.76489439656383"
      },
      "geometry": {
        "type": "Point",
        "coordinates": [
          -69.07291168986967,
          36.87066957162099
        ]
      }
    },
    {
      "type": "Feature",
      "properties": {
        "norad_id": 32117,
        "name": "FENGYUN 1C DEB",
        "group": "fengyun-1c-debris",
        "lat": 24.869277765271843,
        "lon": 27.72449458559217,
        "alt_km": 803.6130675135564,
        "timestamp": "2025-12-12T09:49:09.017191+00:00",
        "meta_object_name": "FENGYUN 1C DEB",
        "meta_object_id": "1999-025CRK",
        "meta_epoch": "2025-12-10T08:47:41.781984",
        "meta_mean_motion": 14.23925187,
        "meta_eccentricity": 0.00275954,
        "meta_inclination": 98.6124,
        "meta_ra_of_asc_node": 29.7522,
        "meta_arg_of_pericenter": 98.5643,
        "meta_mean_anomaly": 261.8664,
        "meta_ephemeris_type": 0,
        "meta_classification_type": "U",
        "meta_norad_cat_id": 32117,
        "meta_element_set_no": 999,
        "meta_rev_at_epoch": 94763,
        "meta_bstar": 0.0014152729,
        "meta_mean_motion_dot": 3.215e-05,
        "meta_mean_motion_ddot": 0,
        "tle_line1": "1 32117U 99025CRK 25344.36645581  .00003215  00000+0  14153-2 0  9991",
        "tle_line2": "2 32117  98.6124  29.7522 0027595  98.5643 261.8664 14.23925187947630"
      },
      "geometry": {
        "type": "Point",
        "coordinates": [
          27.72449458559217,
          24.869277765271843
        ]
      }
    },
    {
      "type": "Feature",
      "properties": {
        "norad_id": 32119,
        "name": "FENGYUN 1C DEB",
        "group": "fengyun-1c-debris",
        "lat": 71.89144343311295,
        "lon": 176.6595850050769,
        "alt_km": 819.2490790271886,
        "timestamp": "2025-12-12T09:49:09.017201+00:00",
        "meta_object_name": "FENGYUN 1C DEB",
        "meta_object_id": "1999-025CRM",
        "meta_epoch": "2025-12-10T21:31:22.141056",
        "meta_mean_motion": 14.02813537,
        "meta_eccentricity": 0.0085507,
        "meta_inclination": 99.8876,
        "meta_ra_of_asc_node": 207.2511,
        "meta_arg_of_pericenter": 57.2355,
        "meta_mean_anomaly": 303.7012,
        "meta_ephemeris_type": 0,
        "meta_classification_type": "U",
        "meta_norad_cat_id": 32119,
        "meta_element_set_no": 999,
        "meta_rev_at_epoch": 93702,
        "meta_bstar": 0.0011169,
        "meta_mean_motion_dot": 1.734e-05,
        "meta_mean_motion_ddot": 0,
        "tle_line1": "1 32119U 99025CRM 25344.89678404  .00001734  00000+0  11169-2 0  9999",
        "tle_line2": "2 32119  99.8876 207.2511 0085507  57.2355 303.7012 14.02813537937026"
      },
      "geometry": {
        "type": "Point",
        "coordinates": [
          176.6595850050769,
          71.89144343311295
        ]
      }
    },
    {
      "type": "Feature",
      "properties": {
        "norad_id": 32123,
        "name": "FENGYUN 1C DEB",
        "group": "fengyun-1c-debris",
        "lat": -78.8671952993188,
        "lon": -152.67719559031798,
        "alt_km": 588.0191070486953,
        "timestamp": "2025-12-12T09:49:09.017212+00:00",
        "meta_object_name": "FENGYUN 1C DEB",
        "meta_object_id": "1999-025CRR",
        "meta_epoch": "2025-12-11T06:49:49.279296",
        "meta_mean_motion": 14.61454478,
        "meta_eccentricity": 0.01596929,
        "meta_inclination": 98.9409,
        "meta_ra_of_asc_node": 152.9766,
        "meta_arg_of_pericenter": 297.6858,
        "meta_mean_anomaly": 186.5191,
        "meta_ephemeris_type": 0,
        "meta_classification_type": "U",
        "meta_norad_cat_id": 32123,
        "meta_element_set_no": 999,
        "meta_rev_at_epoch": 71353,
        "meta_bstar": 0.00046354398,
        "meta_mean_motion_dot": 2.687e-05,
        "meta_mean_motion_ddot": 0,
        "tle_line1": "1 32123U 99025CRR 25345.28459814  .00002687  00000+0  46354-3 0  9993",
        "tle_line2": "2 32123  98.9409 152.9766 0159692 297.6858 186.5191 14.61454478713539"
      },
      "geometry": {
        "type": "Point",
        "coordinates": [
          -152.67719559031798,
          -78.8671952993188
        ]
      }
    },
    {
      "type": "Feature",
      "properties": {
        "norad_id": 32125,
        "name": "FENGYUN 1C DEB",
        "group": "fengyun-1c-debris",
        "lat": 48.16473821428778,
        "lon": -43.558197618812805,
        "alt_km": 644.5238513159047,
        "timestamp": "2025-12-12T09:49:09.017222+00:00",
        "meta_object_name": "FENGYUN 1C DEB",
        "meta_object_id": "1999-025CRT",
        "meta_epoch": "2025-11-30T16:29:46.563072",
        "meta_mean_motion": 14.69027096,
        "meta_eccentricity": 0.01775541,
        "meta_inclination": 99.061,
        "meta_ra_of_asc_node": 313.7121,
        "meta_arg_of_pericenter": 0.429,
        "meta_mean_anomaly": 359.7033,
        "meta_ephemeris_type": 0,
        "meta_classification_type": "U",
        "meta_norad_cat_id": 32125,
        "meta_element_set_no": 999,
        "meta_rev_at_epoch": 70346,
        "meta_bstar": 0.0033542642,
        "meta_mean_motion_dot": 0.00025065,
        "meta_mean_motion_ddot": 0,
        "tle_line1": "1 32125U 99025CRT 25334.68734448  .00025065  00000+0  33543-2 0  9996",
        "tle_line2": "2 32125  99.0610 313.7121 0177554   0.4290 359.7033 14.69027096703466"
      },
      "geometry": {
        "type": "Point",
        "coordinates": [
          -43.558197618812805,
          48.16473821428778
        ]
      }
    },
    {
      "type": "Feature",
      "properties": {
        "norad_id": 32126,
        "name": "FENGYUN 1C DEB",
        "group": "fengyun-1c-debris",
        "lat": -39.4996788437884,
        "lon": -129.90044828834985,
        "alt_km": 956.2186299402738,
        "timestamp": "2025-12-12T09:49:09.017233+00:00",
        "meta_object_name": "FENGYUN 1C DEB",
        "meta_object_id": "1999-025CRU",
        "meta_epoch": "2025-12-08T21:03:50.440032",
        "meta_mean_motion": 13.56787693,
        "meta_eccentricity": 0.0281203,
        "meta_inclination": 99.1098,
        "meta_ra_of_asc_node": 219.2267,
        "meta_arg_of_pericenter": 265.4353,
        "meta_mean_anomaly": 91.4619,
        "meta_ephemeris_type": 0,
        "meta_classification_type": "U",
        "meta_norad_cat_id": 32126,
        "meta_element_set_no": 999,
        "meta_rev_at_epoch": 61662,
        "meta_bstar": 0.0016621,
        "meta_mean_motion_dot": 1.479e-05,
        "meta_mean_motion_ddot": 0,
        "tle_line1": "1 32126U 99025CRU 25342.87766713  .00001479  00000+0  16621-2 0  9998",
        "tle_line2": "2 32126  99.1098 219.2267 0281203 265.4353  91.4619 13.56787693616621"
      },
      "geometry": {
        "type": "Point",
        "coordinates": [
          -129.90044828834985,
          -39.4996788437884
        ]
      }
    }
  ]
}